{
  "type": "FeatureCollection",
  "features": [
    {
      "type": "Feature",
      "properties": {
        "norad_id": 64694,
        "name": "GOSAT-GW (IBUKI GW)",
        "group": "resource",
        "lat": 33.46835166620342,
        "lon": 116.1216170754121,
        "alt_km": 666.3125186529751,
        "timestamp": "2025-12-21T09:37:22.306387+00:00",
        "meta_object_name": "GOSAT-GW (IBUKI GW)",
        "meta_object_id": "2025-141A",
        "meta_epoch": "2025-12-21T04:03:02.159136",
        "meta_mean_motion": 14.67560365,
        "meta_eccentricity": 0.0001406,
        "meta_inclination": 98.0433,
        "meta_ra_of_asc_node": 290.5297,
        "meta_arg_of_pericenter": 85.7321,
        "meta_mean_anomaly": 274.4044,
        "meta_ephemeris_type": 0,
        "meta_classification_type": "U",
        "meta_norad_cat_id": 64694,
        "meta_element_set_no": 999,
        "meta_rev_at_epoch": 2573,
        "meta_bstar": 0.00010391,
        "meta_mean_motion_dot": 5.42e-06,
        "meta_mean_motion_ddot": 0,
        "tle_line1": "1 64694U 25141A   25355.16877499  .00000542  00000+0  10391-3 0  9990",
        "tle_line2": "2 64694  98.0433 290.5297 0001406  85.7321 274.4044 14.67560365 25734"
      },
      "geometry": {
        "type": "Point",
        "coordinates": [
          116.1216170754121,
          33.46835166620342
        ]
      }
    },
    {
      "type": "Feature",
      "properties": {
        "norad_id": 64876,
        "name": "IONOSFERA-M 3",
        "group": "resource",
        "lat": 26.736686465980156,
        "lon": 141.38376473745367,
        "alt_km": 819.8363074159561,
        "timestamp": "2025-12-21T09:37:22.306397+00:00",
        "meta_object_name": "IONOSFERA-M 3",
        "meta_object_id": "2025-155A",
        "meta_epoch": "2025-12-21T03:50:17.638368",
        "meta_mean_motion": 14.21442896,
        "meta_eccentricity": 0.0001995,
        "meta_inclination": 98.5794,
        "meta_ra_of_asc_node": 316.7881,
        "meta_arg_of_pericenter": 46.422,
        "meta_mean_anomaly": 313.7123,
        "meta_ephemeris_type": 0,
        "meta_classification_type": "U",
        "meta_norad_cat_id": 64876,
        "meta_element_set_no": 999,
        "meta_rev_at_epoch": 2111,
        "meta_bstar": 3.8666e-05,
        "meta_mean_motion_dot": 4.2e-07,
        "meta_mean_motion_ddot": 0,
        "tle_line1": "1 64876U 25155A   25355.15992637  .00000042  00000+0  38666-4 0  9999",
        "tle_line2": "2 64876  98.5794 316.7881 0001995  46.4220 313.7123 14.21442896 21117"
      },
      "geometry": {
        "type": "Point",
        "coordinates": [
          141.38376473745367,
          26.736686465980156
        ]
      }
    },
    {
      "type": "Feature",
      "properties": {
        "norad_id": 64877,
        "name": "IONOSFERA-M 4",
        "group": "resource",
        "lat": -26.298665858955754,
        "lon": -38.77968060185229,
        "alt_km": 825.9549129150155,
        "timestamp": "2025-12-21T09:37:22.306407+00:00",
        "meta_object_name": "IONOSFERA-M 4",
        "meta_object_id": "2025-155B",
        "meta_epoch": "2025-12-21T04:40:46.791264",
        "meta_mean_motion": 14.2144402,
        "meta_eccentricity": 0.0001399,
        "meta_inclination": 98.5793,
        "meta_ra_of_asc_node": 316.7416,
        "meta_arg_of_pericenter": 55.2558,
        "meta_mean_anomaly": 304.8751,
        "meta_ephemeris_type": 0,
        "meta_classification_type": "U",
        "meta_norad_cat_id": 64877,
        "meta_element_set_no": 999,
        "meta_rev_at_epoch": 2111,
        "meta_bstar": 3.5083e-05,
        "meta_mean_motion_dot": 3.4e-07,
        "meta_mean_motion_ddot": 0,
        "tle_line1": "1 64877U 25155B   25355.19498601  .00000034  00000+0  35083-4 0  9997",
        "tle_line2": "2 64877  98.5793 316.7416 0001399  55.2558 304.8751 14.21444020 21110"
      },
      "geometry": {
        "type": "Point",
        "coordinates": [
          -38.77968060185229,
          -26.298665858955754
        ]
      }
    },
    {
      "type": "Feature",
      "properties": {
        "norad_id": 64899,
        "name": "MICROCARB",
        "group": "resource",
        "lat": -80.01742288406906,
        "lon": -162.44393152219405,
        "alt_km": 671.957864928132,
        "timestamp": "2025-12-21T09:37:22.306417+00:00",
        "meta_object_name": "MICROCARB",
        "meta_object_id": "2025-156A",
        "meta_epoch": "2025-12-20T22:38:25.178208",
        "meta_mean_motion": 14.72069142,
        "meta_eccentricity": 0.0017533,
        "meta_inclination": 98.0017,
        "meta_ra_of_asc_node": 70.157,
        "meta_arg_of_pericenter": 120.0864,
        "meta_mean_anomaly": 240.2085,
        "meta_ephemeris_type": 0,
        "meta_classification_type": "U",
        "meta_norad_cat_id": 64899,
        "meta_element_set_no": 999,
        "meta_rev_at_epoch": 2174,
        "meta_bstar": 8.5365e-05,
        "meta_mean_motion_dot": 4.88e-06,
        "meta_mean_motion_ddot": 0,
        "tle_line1": "1 64899U 25156A   25354.94334697  .00000488  00000+0  85365-4 0  9999",
        "tle_line2": "2 64899  98.0017  70.1570 0017533 120.0864 240.2085 14.72069142 21744"
      },
      "geometry": {
        "type": "Point",
        "coordinates": [
          -162.44393152219405,
          -80.01742288406906
        ]
      }
    },
    {
      "type": "Feature",
      "properties": {
        "norad_id": 64900,
        "name": "CO3D 3",
        "group": "resource",
        "lat": 3.5891777576989607,
        "lon": 71.17490341365759,
        "alt_km": 507.57930624369783,
        "timestamp": "2025-12-21T09:37:22.306427+00:00",
        "meta_object_name": "CO3D 3",
        "meta_object_id": "2025-156B",
        "meta_epoch": "2025-12-21T04:52:03.965952",
        "meta_mean_motion": 15.20208411,
        "meta_eccentricity": 0.0001338,
        "meta_inclination": 97.4343,
        "meta_ra_of_asc_node": 71.4489,
        "meta_arg_of_pericenter": 79.5755,
        "meta_mean_anomaly": 280.5631,
        "meta_ephemeris_type": 0,
        "meta_classification_type": "U",
        "meta_norad_cat_id": 64900,
        "meta_element_set_no": 999,
        "meta_rev_at_epoch": 2249,
        "meta_bstar": 0.0001795,
        "meta_mean_motion_dot": 3.821e-05,
        "meta_mean_motion_ddot": 0,
        "tle_line1": "1 64900U 25156B   25355.20282368  .00003821  00000+0  17950-3 0  9997",
        "tle_line2": "2 64900  97.4343  71.4489 0001338  79.5755 280.5631 15.20208411 22493"
      },
      "geometry": {
        "type": "Point",
        "coordinates": [
          71.17490341365759,
          3.5891777576989607
        ]
      }
    },
    {
      "type": "Feature",
      "properties": {
        "norad_id": 64901,
        "name": "CO3D 4",
        "group": "resource",
        "lat": 2.736229444927307,
        "lon": 71.28666990187205,
        "alt_km": 508.78601430043454,
        "timestamp": "2025-12-21T09:37:22.306437+00:00",
        "meta_object_name": "CO3D 4",
        "meta_object_id": "2025-156C",
        "meta_epoch": "2025-12-21T04:52:17.427936",
        "meta_mean_motion": 15.2019907,
        "meta_eccentricity": 0.0001245,
        "meta_inclination": 97.4342,
        "meta_ra_of_asc_node": 71.4491,
        "meta_arg_of_pericenter": 167.9533,
        "meta_mean_anomaly": 192.1732,
        "meta_ephemeris_type": 0,
        "meta_classification_type": "U",
        "meta_norad_cat_id": 64901,
        "meta_element_set_no": 999,
        "meta_rev_at_epoch": 2249,
        "meta_bstar": 0.00018233,
        "meta_mean_motion_dot": 3.881e-05,
        "meta_mean_motion_ddot": 0,
        "tle_line1": "1 64901U 25156C   25355.20297949  .00003881  00000+0  18233-3 0  9990",
        "tle_line2": "2 64901  97.4342  71.4491 0001245 167.9533 192.1732 15.20199070 22499"
      },
      "geometry": {
        "type": "Point",
        "coordinates": [
          71.28666990187205,
          2.736229444927307
        ]
      }
    },
    {
      "type": "Feature",
      "properties": {
        "norad_id": 64902,
        "name": "CO3D 2",
        "group": "resource",
        "lat": -5.4065205865654455,
        "lon": -109.16594862049782,
        "alt_km": 509.2230660692012,
        "timestamp": "2025-12-21T09:37:22.306447+00:00",
        "meta_object_name": "CO3D 2",
        "meta_object_id": "2025-156D",
        "meta_epoch": "2025-12-21T04:04:15.511872",
        "meta_mean_motion": 15.20195116,
        "meta_eccentricity": 7.99e-05,
        "meta_inclination": 97.4338,
        "meta_ra_of_asc_node": 71.3141,
        "meta_arg_of_pericenter": 71.3252,
        "meta_mean_anomaly": 288.807,
        "meta_ephemeris_type": 0,
        "meta_classification_type": "U",
        "meta_norad_cat_id": 64902,
        "meta_element_set_no": 999,
        "meta_rev_at_epoch": 2248,
        "meta_bstar": 0.0008371,
        "meta_mean_motion_dot": 0.00018094,
        "meta_mean_motion_ddot": 0,
        "tle_line1": "1 64902U 25156D   25355.16962398  .00018094  00000+0  83710-3 0  9997",
        "tle_line2": "2 64902  97.4338  71.3141 0000799  71.3252 288.8070 15.20195116 22489"
      },
      "geometry": {
        "type": "Point",
        "coordinates": [
          -109.16594862049782,
          -5.4065205865654455
        ]
      }
    }
  ]
}